HST                     
1 20580U 90037B   26068.15977042  .00009063  00000+0  30023-3 0  9999
2 20580  28.4717  43.6133 0001837 120.9992 239.0785 15.29473555773239
STARLINK-35936          
1 66620U 25271D   26068.56612097  .00025207  00000+0  86062-3 0  9995
2 66620  53.1578 140.8022 0001189  86.5990 273.5147 15.30187874 17544
